{"type": "FeatureCollection", "features": [{"type": "Feature", "properties": {"norad_id": 22675, "name": "COSMOS 2251", "group": "cosmos-2251-debris", "lat": -42.65306009763676, "lon": 152.229235973052, "alt_km": 804.3631640184776, "timestamp": "2025-12-12T03:50:52.810704+00:00", "meta": {"OBJECT_NAME": "COSMOS 2251", "OBJECT_ID": "1993-036A", "EPOCH": "2025-12-11T15:04:36.561216", "MEAN_MOTION": 14.33204304, "ECCENTRICITY": 0.00239222, "INCLINATION": 74.0395, "RA_OF_ASC_NODE": 317.9144, "ARG_OF_PERICENTER": 40.5225, "MEAN_ANOMALY": 319.7702, "EPHEMERIS_TYPE": 0, "CLASSIFICATION_TYPE": "U", "NORAD_CAT_ID": 22675, "ELEMENT_SET_NO": 999, "REV_AT_EPOCH": 69757, "BSTAR": 9.142395e-05, "MEAN_MOTION_DOT": 2.26e-06, "MEAN_MOTION_DDOT": 0}, "tle": {"line1": "1 22675U 93036A   25345.62820094  .00000226  00000+0  91424-4 0  9996", "line2": "2 22675  74.0395 317.9144 0023922  40.5225 319.7702 14.33204304697574"}}, "geometry": {"type": "Point", "coordinates": [152.229235973052, -42.65306009763676]}}, {"type": "Feature", "properties": {"norad_id": 33757, "name": "COSMOS 2251 DEB", "group": "cosmos-2251-debris", "lat": -73.19456082154399, "lon": -143.93760937055276, "alt_km": 786.9286591741293, "timestamp": "2025-12-12T03:50:52.810728+00:00", "meta": {"OBJECT_NAME": "COSMOS 2251 DEB", "OBJECT_ID": "1993-036E", "EPOCH": "2025-12-11T10:38:05.442720", "MEAN_MOTION": 14.32580562, "ECCENTRICITY": 0.00152055, "INCLINATION": 74.0367, "RA_OF_ASC_NODE": 325.9769, "ARG_OF_PERICENTER": 339.4681, "MEAN_ANOMALY": 187.9914, "EPHEMERIS_TYPE": 0, "CLASSIFICATION_TYPE": "U", "NORAD_CAT_ID": 33757, "ELEMENT_SET_NO": 999, "REV_AT_EPOCH": 87977, "BSTAR": 8.0308355e-05, "MEAN_MOTION_DOT": 1.92e-06, "MEAN_MOTION_DDOT": 0}, "tle": {"line1": "1 33757U 93036E   25345.44311855  .00000192  00000+0  80308-4 0  9990", "line2": "2 33757  74.0367 325.9769 0015205 339.4681 187.9914 14.32580562879775"}}, "geometry": {"type": "Point", "coordinates": [-143.93760937055276, -73.19456082154399]}}, {"type": "Feature", "properties": {"norad_id": 33758, "name": "COSMOS 2251 DEB", "group": "cosmos-2251-debris", "lat": 9.033669708277644, "lon": 33.511748148500935, "alt_km": 726.5415417003642, "timestamp": "2025-12-12T03:50:52.810743+00:00", "meta": {"OBJECT_NAME": "COSMOS 2251 DEB", "OBJECT_ID": "1993-036F", "EPOCH": "2025-12-11T15:37:40.224000", "MEAN_MOTION": 14.51583527, "ECCENTRICITY": 0.00174048, "INCLINATION": 74.0277, "RA_OF_ASC_NODE": 217.0803, "ARG_OF_PERICENTER": 284.0089, "MEAN_ANOMALY": 106.9551, "EPHEMERIS_TYPE": 0, "CLASSIFICATION_TYPE": "U", "NORAD_CAT_ID": 33758, "ELEMENT_SET_NO": 999, "REV_AT_EPOCH": 88289, "BSTAR": 0.0012023576, "MEAN_MOTION_DOT": 4.799e-05, "MEAN_MOTION_DDOT": 0}, "tle": {"line1": "1 33758U 93036F   25345.65116000  .00004799  00000+0  12024-2 0  9994", "line2": "2 33758  74.0277 217.0803 0017404 284.0089 106.9551 14.51583527882896"}}, "geometry": {"type": "Point", "coordinates": [33.511748148500935, 9.033669708277644]}}, {"type": "Feature", "properties": {"norad_id": 33760, "name": "COSMOS 2251 DEB", "group": "cosmos-2251-debris", "lat": 32.55801217743697, "lon": 91.98616979697607, "alt_km": 778.6001834476538, "timestamp": "2025-12-12T03:50:52.810754+00:00", "meta": {"OBJECT_NAME": "COSMOS 2251 DEB", "OBJECT_ID": "1993-036H", "EPOCH": "2025-12-11T07:39:00.748224", "MEAN_MOTION": 14.35671432, "ECCENTRICITY": 0.00198101, "INCLINATION": 74.0321, "RA_OF_ASC_NODE": 284.0639, "ARG_OF_PERICENTER": 22.7886, "MEAN_ANOMALY": 95.0314, "EPHEMERIS_TYPE": 0, "CLASSIFICATION_TYPE": "U", "NORAD_CAT_ID": 33760, "ELEMENT_SET_NO": 999, "REV_AT_EPOCH": 88104, "BSTAR": 0.00019849695, "MEAN_MOTION_DOT": 5.48e-06, "MEAN_MOTION_DDOT": 0}, "tle": {"line1": "1 33760U 93036H   25345.31875866  .00000548  00000+0  19850-3 0  9995", "line2": "2 33760  74.0321 284.0639 0019810  22.7886  95.0314 14.35671432881041"}}, "geometry": {"type": "Point", "coordinates": [91.98616979697607, 32.55801217743697]}}, {"type": "Feature", "properties": {"norad_id": 33761, "name": "COSMOS 2251 DEB", "group": "cosmos-2251-debris", "lat": 56.67209077142553, "lon": -80.95738475037074, "alt_km": 743.4079446081932, "timestamp": "2025-12-12T03:50:52.810766+00:00", "meta": {"OBJECT_NAME": "COSMOS 2251 DEB", "OBJECT_ID": "1993-036J", "EPOCH": "2025-12-11T11:45:08.623296", "MEAN_MOTION": 14.42540315, "ECCENTRICITY": 0.00230425, "INCLINATION": 74.0365, "RA_OF_ASC_NODE": 254.482, "ARG_OF_PERICENTER": 334.868, "MEAN_ANOMALY": 203.8946, "EPHEMERIS_TYPE": 0, "CLASSIFICATION_TYPE": "U", "NORAD_CAT_ID": 33761, "ELEMENT_SET_NO": 999, "REV_AT_EPOCH": 88216, "BSTAR": 0.00083004815, "MEAN_MOTION_DOT": 2.736e-05, "MEAN_MOTION_DDOT": 0}, "tle": {"line1": "1 33761U 93036J   25345.48968314  .00002736  00000+0  83005-3 0  9999", "line2": "2 33761  74.0365 254.4820 0023042 334.8680 203.8946 14.42540315882161"}}, "geometry": {"type": "Point", "coordinates": [-80.95738475037074, 56.67209077142553]}}, {"type": "Feature", "properties": {"norad_id": 33762, "name": "COSMOS 2251 DEB", "group": "cosmos-2251-debris", "lat": 73.90821995215198, "lon": 33.79087134463619, "alt_km": 769.3583508867096, "timestamp": "2025-12-12T03:50:52.810776+00:00", "meta": {"OBJECT_NAME": "COSMOS 2251 DEB", "OBJECT_ID": "1993-036K", "EPOCH": "2025-12-11T09:45:29.100384", "MEAN_MOTION": 14.33663204, "ECCENTRICITY": 0.00149461, "INCLINATION": 74.0416, "RA_OF_ASC_NODE": 312.4639, "ARG_OF_PERICENTER": 14.2887, "MEAN_ANOMALY": 144.8656, "EPHEMERIS_TYPE": 0, "CLASSIFICATION_TYPE": "U", "NORAD_CAT_ID": 33762, "ELEMENT_SET_NO": 999, "REV_AT_EPOCH": 88028, "BSTAR": 9.6639898e-05, "MEAN_MOTION_DOT": 2.42e-06, "MEAN_MOTION_DDOT": 0}, "tle": {"line1": "1 33762U 93036K   25345.40658681  .00000242  00000+0  96640-4 0  9995", "line2": "2 33762  74.0416 312.4639 0014946  14.2887 144.8656 14.33663204880289"}}, "geometry": {"type": "Point", "coordinates": [33.79087134463619, 73.90821995215198]}}, {"type": "Feature", "properties": {"norad_id": 33764, "name": "COSMOS 2251 DEB", "group": "cosmos-2251-debris", "lat": -33.852456606147506, "lon": 104.79913722724866, "alt_km": 750.31066615082, "timestamp": "2025-12-12T03:50:52.810787+00:00", "meta": {"OBJECT_NAME": "COSMOS 2251 DEB", "OBJECT_ID": "1993-036M", "EPOCH": "2025-12-11T12:23:01.154976", "MEAN_MOTION": 14.39507233, "ECCENTRICITY": 0.00240053, "INCLINATION": 74.0336, "RA_OF_ASC_NODE": 274.9167, "ARG_OF_PERICENTER": 240.8748, "MEAN_ANOMALY": 236.7371, "EPHEMERIS_TYPE": 0, "CLASSIFICATION_TYPE": "U", "NORAD_CAT_ID": 33764, "ELEMENT_SET_NO": 999, "REV_AT_EPOCH": 88139, "BSTAR": 0.00058161674, "MEAN_MOTION_DOT": 1.794e-05, "MEAN_MOTION_DDOT": 0}, "tle": {"line1": "1 33764U 93036M   25345.51598559  .00001794  00000+0  58162-3 0  9995", "line2": "2 33764  74.0336 274.9167 0024005 240.8748 236.7371 14.39507233881393"}}, "geometry": {"type": "Point", "coordinates": [104.79913722724866, -33.852456606147506]}}, {"type": "Feature", "properties": {"norad_id": 33765, "name": "COSMOS 2251 DEB", "group": "cosmos-2251-debris", "lat": -69.6471443438826, "lon": 44.93552296163996, "alt_km": 498.5091374499989, "timestamp": "2025-12-12T03:50:52.810798+00:00", "meta": {"OBJECT_NAME": "COSMOS 2251 DEB", "OBJECT_ID": "1993-036N", "EPOCH": "2025-12-11T00:22:05.382912", "MEAN_MOTION": 15.09816798, "ECCENTRICITY": 0.00657675, "INCLINATION": 74.009, "RA_OF_ASC_NODE": 176.6722, "ARG_OF_PERICENTER": 269.1485, "MEAN_ANOMALY": 247.2152, "EPHEMERIS_TYPE": 0, "CLASSIFICATION_TYPE": "U", "NORAD_CAT_ID": 33765, "ELEMENT_SET_NO": 999, "REV_AT_EPOCH": 89592, "BSTAR": 0.0027837282, "MEAN_MOTION_DOT": 0.00047638, "MEAN_MOTION_DDOT": 0}, "tle": {"line1": "1 33765U 93036N   25345.01534008  .00047638  00000+0  27837-2 0  9991", "line2": "2 33765  74.0090 176.6722 0065767 269.1485 247.2152 15.09816798895923"}}, "geometry": {"type": "Point", "coordinates": [44.93552296163996, -69.6471443438826]}}, {"type": "Feature", "properties": {"norad_id": 33766, "name": "COSMOS 2251 DEB", "group": "cosmos-2251-debris", "lat": -73.60638783912607, "lon": 30.479891278699814, "alt_km": 769.2829738722385, "timestamp": "2025-12-12T03:50:52.810809+00:00", "meta": {"OBJECT_NAME": "COSMOS 2251 DEB", "OBJECT_ID": "1993-036P", "EPOCH": "2025-12-11T11:33:01.200960", "MEAN_MOTION": 14.34929119, "ECCENTRICITY": 0.00640917, "INCLINATION": 74.1857, "RA_OF_ASC_NODE": 137.2643, "ARG_OF_PERICENTER": 340.9878, "MEAN_ANOMALY": 18.8882, "EPHEMERIS_TYPE": 0, "CLASSIFICATION_TYPE": "U", "NORAD_CAT_ID": 33766, "ELEMENT_SET_NO": 999, "REV_AT_EPOCH": 87727, "BSTAR": 0.00087906352, "MEAN_MOTION_DOT": 2.534e-05, "MEAN_MOTION_DDOT": 0}, "tle": {"line1": "1 33766U 93036P   25345.48126390  .00002534  00000+0  87906-3 0  9994", "line2": "2 33766  74.1857 137.2643 0064091 340.9878  18.8882 14.34929119877273"}}, "geometry": {"type": "Point", "coordinates": [30.479891278699814, -73.60638783912607]}}, {"type": "Feature", "properties": {"norad_id": 33768, "name": "COSMOS 2251 DEB", "group": "cosmos-2251-debris", "lat": -8.257392392123284, "lon": -141.57262259305634, "alt_km": 800.984397092313, "timestamp": "2025-12-12T03:50:52.810820+00:00", "meta": {"OBJECT_NAME": "COSMOS 2251 DEB", "OBJECT_ID": "1993-036R", "EPOCH": "2025-12-11T15:39:14.061312", "MEAN_MOTION": 13.58453283, "ECCENTRICITY": 0.03662696, "INCLINATION": 74.0683, "RA_OF_ASC_NODE": 221.6228, "ARG_OF_PERICENTER": 19.5996, "MEAN_ANOMALY": 9.9577, "EPHEMERIS_TYPE": 0, "CLASSIFICATION_TYPE": "U", "NORAD_CAT_ID": 33768, "ELEMENT_SET_NO": 999, "REV_AT_EPOCH": 83281, "BSTAR": 0.00047482721, "MEAN_MOTION_DOT": 5.15e-06, "MEAN_MOTION_DDOT": 0}, "tle": {"line1": "1 33768U 93036R   25345.65224608  .00000515  00000+0  47483-3 0  9999", "line2": "2 33768  74.0683 221.6228 0366269  19.5996   9.9577 13.58453283832812"}}, "geometry": {"type": "Point", "coordinates": [-141.57262259305634, -8.257392392123284]}}]}